NAYIF-1 (EO-88)         
1 42017U 17008BX  20071.14741623  .00001281  00000-0  52291-4 0  9993
2 42017  97.3705 140.1107 0004930 321.4867  38.6019 15.26209531170557
MAX VALIER SAT          
1 42778U 17036P   20071.41627252  .00000721  00000-0  34107-4 0  9993
2 42778  97.3184 127.7040 0012435  15.5893 344.5724 15.22440871150817
RADFXSAT (FOX-1B)       
1 43017U 17073E   20071.21522320  .00000734  00000-0  62333-4 0  9995
2 43017  97.7262 347.2272 0257718  10.7426 349.9145 14.78829518124642
FOX-1D (AO-92)          
1 43137U 18004AC  20070.99782064  .00000866  00000-0  38777-4 0  9991
2 43137  97.4554 142.7915 0010338  49.2319 310.9813 15.23928207120047
ES'HAIL 2               
1 43700U 18090A   20071.14463517  .00000126  00000-0  00000-0 0  9992
2 43700   0.0152 225.1780 0002414 154.7311 227.2122  1.00271643  4727
FOX-1CLIFF (AO-95)      
1 43770U 18099N   20071.18400129 -.00000134  00000-0 -70339-5 0  9990
2 43770  97.7150 144.2389 0015162 160.1323 200.0491 14.94923754 69238
ITASAT 1                
1 43786U 18099AE  20071.13658274  .00000396  00000-0  41116-4 0  9996
2 43786  97.7163 144.5410 0016004 154.5566 205.6446 14.95270856 69240
JY1SAT (JO-97)          
1 43803U 18099AX  20071.42994525  .00000332  00000-0  35171-4 0  9994
2 43803  97.7127 144.6732 0015932 153.5277 206.6761 14.95438255 69289
PSAT2 (NO-104)          
1 44354U 19036R   20070.89048954  .00009207  00000-0  13589-3 0  9992
2 44354  28.5319 307.0713 0372129 339.7667  18.8518 15.01439269 38985
BRICSAT2 (NO-103)       
1 44355U 19036S   20071.33326586  .00015743  00000-0  22862-3 0  9999
2 44355  28.5312 299.9482 0357838 351.3773   8.0794 15.05019065 39080
JAISAT-1                
1 44419U 19038F   20071.39071686  .00000737  00000-0  45703-4 0  9993
2 44419  97.5270  34.2190 0023283 107.2548 253.1233 15.12609273 37777
DUCHIFAT-3              
1 44854U 19089C   20071.37843587  .00000341  00000-0  34057-4 0  9998
2 44854  36.9700 317.9265 0009111 340.0780  19.9610 14.98990746 13578
HUSKYSAT-1              
1 45119U 19071J   20071.31334543  .00001093  00000-0  45137-4 0  9991
2 45119  51.6435 117.4261 0012861  61.4082 298.8192 15.33206508  6061
